GLOBALSTAR M023         
1 25621U 99004A   25284.32927823 -.00000104  00000+0  14548-6 0  9998
2 25621  52.0111  59.7813 0010262  27.8010 347.8494 12.62507996230405
GLOBALSTAR M040         
1 25622U 99004B   25284.14644742 -.00000121  00000+0 -95103-4 0  9999
2 25622  51.9922  64.6644 0000059  35.1243 136.6464 12.62018795229890
GLOBALSTAR M036         
1 25623U 99004C   25284.27635461 -.00000041  00000+0  61144-3 0  9999
2 25623  51.9968 294.3342 0010571 273.0666  99.3789 11.86611109192763
GLOBALSTAR M038         
1 25624U 99004D   25284.24963713 -.00000085  00000+0  85339-4 0  9992
2 25624  51.9953  97.3213 0000980 319.3571 212.1300 12.32533638216682
GLOBALSTAR M022         
1 25649U 99012A   25284.28191672 -.00000037  00000+0  59778-3 0  9993
2 25649  52.0065 335.3034 0002737  49.9954  24.6517 12.02503730190341
GLOBALSTAR M041         
1 25650U 99012B   25284.06953735 -.00000120  00000+0 -45324-3 0  9993
2 25650  52.0011 220.8633 0001057 167.8704 192.2158 11.96682282192150
GLOBALSTAR M046         
1 25651U 99012C   25284.30730867  .00000016  00000+0  11548-2 0  9992
2 25651  52.0047 281.1294 0002103 119.6159 342.4548 12.09412848197718
GLOBALSTAR M037         
1 25652U 99012D   25283.99604869 -.00000048  00000+0  31196-3 0  9997
2 25652  51.9997 191.3755 0002750  77.5961 296.2775 12.62452389225900
